start=new Date('2023-01-21T00:00:00.000Z').valueOf();
sats=[{"CENTER_NAME":"EARTH","OBJECT_ID":"2022-105AS","SEMIMAJOR_AXIS":"6941.094","RA_OF_ASC_NODE":"263.6106","EPHEMERIS_TYPE":"0","COUNTRY_CODE":"US","PERIOD":"95.918","RCS_SIZE":"LARGE","LAUNCH_DATE":"2022-08-31","APOAPSIS":"563.735","OBJECT_NAME":"STARLINK-4571","NORAD_CAT_ID":"53688","OBJECT_TYPE":"PAYLOAD","TLE_LINE2":"2 53688  97.6596 263.6106 0001118  63.9225 296.2114 15.01277036 21567","REF_FRAME":"TEME","MEAN_ELEMENT_THEORY":"SGP4","SITE":"AFWTR","MEAN_MOTION_DDOT":"0.0000000000000","GP_ID":"223548930","MEAN_ANOMALY":"296.2114","BSTAR":"0.00127760000000","PERIAPSIS":"562.183","DECAY_DATE":null,"REV_AT_EPOCH":"2156","FILE":"3755973","ELEMENT_SET_NO":"999","EPOCH":"2023-01-20T10:20:48.473376","MEAN_MOTION_DOT":"0.00016396","CLASSIFICATION_TYPE":"U","TIME_SYSTEM":"UTC","ARG_OF_PERICENTER":"63.9225","INCLINATION":"97.6596","MEAN_MOTION":"15.01277036","ECCENTRICITY":"0.00011180","TLE_LINE1":"1 53688U 22105AS  23020.43111659  .00016396  00000-0  12776-2 0  9997"},{"APOAPSIS":"564.847","OBJECT_NAME":"STARLINK-4562","NORAD_CAT_ID":"53689","TLE_LINE2":"2 53689  97.6556 263.6112 0002640  71.2162 288.9349 15.01259154 21563","OBJECT_TYPE":"PAYLOAD","REF_FRAME":"TEME","MEAN_ELEMENT_THEORY":"SGP4","CENTER_NAME":"EARTH","SEMIMAJOR_AXIS":"6941.149","OBJECT_ID":"2022-105AT","RA_OF_ASC_NODE":"263.6112","EPHEMERIS_TYPE":"0","COUNTRY_CODE":"US","PERIOD":"95.919","LAUNCH_DATE":"2022-08-31","RCS_SIZE":"LARGE","EPOCH":"2023-01-20T10:23:29.092704","MEAN_MOTION_DOT":"0.00010096","ARG_OF_PERICENTER":"71.2162","CLASSIFICATION_TYPE":"U","TIME_SYSTEM":"UTC","INCLINATION":"97.6556","MEAN_MOTION":"15.01259154","ECCENTRICITY":"0.00026400","TLE_LINE1":"1 53689U 22105AT  23020.43297561  .00010096  00000-0  78950-3 0  9993","SITE":"AFWTR","MEAN_MOTION_DDOT":"0.0000000000000","GP_ID":"223549672","MEAN_ANOMALY":"288.9349","PERIAPSIS":"561.182","BSTAR":"0.00078950000000","REV_AT_EPOCH":"2156","DECAY_DATE":null,"FILE":"3755973","ELEMENT_SET_NO":"999"},{"EPHEMERIS_TYPE":"0","COUNTRY_CODE":"US","SEMIMAJOR_AXIS":"6941.082","OBJECT_ID":"2022-105AU","CENTER_NAME":"EARTH","RA_OF_ASC_NODE":"263.8047","PERIOD":"95.918","LAUNCH_DATE":"2022-08-31","RCS_SIZE":"LARGE","OBJECT_NAME":"STARLINK-4570","APOAPSIS":"564.071","MEAN_ELEMENT_THEORY":"SGP4","REF_FRAME":"TEME","OBJECT_TYPE":"PAYLOAD","TLE_LINE2":"2 53690  97.6584 263.8047 0001619  95.1301 265.0108 15.01281045 21877","NORAD_CAT_ID":"53690","MEAN_ANOMALY":"265.0108","GP_ID":"223554758","SITE":"AFWTR","MEAN_MOTION_DDOT":"0.0000000000000","DECAY_DATE":null,"REV_AT_EPOCH":"2187","PERIAPSIS":"561.823","BSTAR":"0.00278650000000","ELEMENT_SET_NO":"999","FILE":"3756172","INCLINATION":"97.6584","TIME_SYSTEM":"UTC","CLASSIFICATION_TYPE":"U","ARG_OF_PERICENTER":"95.1301","EPOCH":"2023-01-20T15:06:04.849056","MEAN_MOTION_DOT":"0.00035934","MEAN_MOTION":"15.01281045","ECCENTRICITY":"0.00016190","TLE_LINE1":"1 53690U 22105AU  23020.62922279  .00035934  00000-0  27865-2 0  9993"},{"TLE_LINE1":"1 53691U 22105AV  23020.42951170  .00022413  00000-0  17434-2 0  9993","ECCENTRICITY":"0.00019670","MEAN_MOTION":"15.01272944","ARG_OF_PERICENTER":"93.6399","CLASSIFICATION_TYPE":"U","TIME_SYSTEM":"UTC","INCLINATION":"97.6576","MEAN_MOTION_DOT":"0.00022413","EPOCH":"2023-01-20T10:18:29.810880","FILE":"3755973","ELEMENT_SET_NO":"999","BSTAR":"0.00174340000000","PERIAPSIS":"561.607","REV_AT_EPOCH":"2156","DECAY_DATE":null,"GP_ID":"223549178","MEAN_ANOMALY":"266.5050","MEAN_MOTION_DDOT":"0.0000000000000","SITE":"AFWTR","REF_FRAME":"TEME","MEAN_ELEMENT_THEORY":"SGP4","NORAD_CAT_ID":"53691","OBJECT_TYPE":"PAYLOAD","TLE_LINE2":"2 53691  97.6576 263.6106 0001967  93.6399 266.5050 15.01272944 21565","APOAPSIS":"564.337","OBJECT_NAME":"STARLINK-4560","RCS_SIZE":"LARGE","LAUNCH_DATE":"2022-08-31","PERIOD":"95.919","COUNTRY_CODE":"US","EPHEMERIS_TYPE":"0","RA_OF_ASC_NODE":"263.6106","CENTER_NAME":"EARTH","SEMIMAJOR_AXIS":"6941.107","OBJECT_ID":"2022-105AV"},{"ELEMENT_SET_NO":"999","FILE":"3756195","DECAY_DATE":null,"REV_AT_EPOCH":"2187","BSTAR":"0.00009831800000","PERIAPSIS":"561.629","MEAN_ANOMALY":"275.3328","GP_ID":"223555360","MEAN_MOTION_DDOT":"0.0000000000000","SITE":"AFWTR","TLE_LINE1":"1 53692U 22105AW  23020.62737066  .00001204  00000-0  98318-4 0  9999","MEAN_MOTION":"15.01272587","ECCENTRICITY":"0.00019360","INCLINATION":"97.6587","CLASSIFICATION_TYPE":"U","ARG_OF_PERICENTER":"84.8118","TIME_SYSTEM":"UTC","MEAN_MOTION_DOT":"0.00001204","EPOCH":"2023-01-20T15:03:24.825024","LAUNCH_DATE":"2022-08-31","RCS_SIZE":"LARGE","PERIOD":"95.919","COUNTRY_CODE":"US","EPHEMERIS_TYPE":"0","RA_OF_ASC_NODE":"263.8032","SEMIMAJOR_AXIS":"6941.108","OBJECT_ID":"2022-105AW","CENTER_NAME":"EARTH","MEAN_ELEMENT_THEORY":"SGP4","REF_FRAME":"TEME","TLE_LINE2":"2 53692  97.6587 263.8032 0001936  84.8118 275.3328 15.01272587 21878","OBJECT_TYPE":"PAYLOAD","NORAD_CAT_ID":"53692","OBJECT_NAME":"STARLINK-4572","APOAPSIS":"564.317"},{"FILE":"3755973","ELEMENT_SET_NO":"999","PERIAPSIS":"561.848","BSTAR":"0.00048557000000","REV_AT_EPOCH":"2156","DECAY_DATE":null,"GP_ID":"223550164","MEAN_ANOMALY":"262.3221","MEAN_MOTION_DDOT":"0.0000000000000","SITE":"AFWTR","TLE_LINE1":"1 53693U 22105AX  23020.42556505  .00006183  00000-0  48557-3 0  9995","ECCENTRICITY":"0.00016710","MEAN_MOTION":"15.01261391","ARG_OF_PERICENTER":"97.8193","CLASSIFICATION_TYPE":"U","TIME_SYSTEM":"UTC","INCLINATION":"97.6591","MEAN_MOTION_DOT":"0.00006183","EPOCH":"2023-01-20T10:12:48.820320","RCS_SIZE":"LARGE","LAUNCH_DATE":"2022-08-31","PERIOD":"95.919","COUNTRY_CODE":"US","EPHEMERIS_TYPE":"0","RA_OF_ASC_NODE":"263.6058","CENTER_NAME":"EARTH","OBJECT_ID":"2022-105AX","SEMIMAJOR_AXIS":"6941.143","REF_FRAME":"TEME","MEAN_ELEMENT_THEORY":"SGP4","NORAD_CAT_ID":"53693","TLE_LINE2":"2 53693  97.6591 263.6058 0001671  97.8193 262.3221 15.01261391 21568","OBJECT_TYPE":"PAYLOAD","APOAPSIS":"564.167","OBJECT_NAME":"STARLINK-4566"},{"REV_AT_EPOCH":"2209","DECAY_DATE":null,"BSTAR":"-0.00016286000000","PERIAPSIS":"538.666","ELEMENT_SET_NO":"999","FILE":"3755973","SITE":"AFETR","MEAN_MOTION_DDOT":"0.0000000000000","MEAN_ANOMALY":"270.3881","GP_ID":"223548931","ECCENTRICITY":"0.00015620","MEAN_MOTION":"15.08839734","TLE_LINE1":"1 53700U 22107A   23020.28999081 -.00002879  00000-0 -16286-3 0  9994","EPOCH":"2023-01-20T06:57:35.205984","MEAN_MOTION_DOT":"-0.00002879","INCLINATION":"53.2195","TIME_SYSTEM":"UTC","CLASSIFICATION_TYPE":"U","ARG_OF_PERICENTER":"89.7291","PERIOD":"95.438","RCS_SIZE":"LARGE","LAUNCH_DATE":"2022-09-05","OBJECT_ID":"2022-107A","SEMIMAJOR_AXIS":"6917.881","CENTER_NAME":"EARTH","RA_OF_ASC_NODE":"341.1546","EPHEMERIS_TYPE":"0","COUNTRY_CODE":"US","TLE_LINE2":"2 53700  53.2195 341.1546 0001562  89.7291 270.3881 15.08839734 22096","OBJECT_TYPE":"PAYLOAD","NORAD_CAT_ID":"53700","MEAN_ELEMENT_THEORY":"SGP4","REF_FRAME":"TEME","OBJECT_NAME":"STARLINK-4725","APOAPSIS":"540.827"},{"APOAPSIS":"540.944","OBJECT_NAME":"STARLINK-4711","REF_FRAME":"TEME","MEAN_ELEMENT_THEORY":"SGP4","NORAD_CAT_ID":"53701","TLE_LINE2":"2 53701  53.2198 341.7217 0001691  85.7355 274.3830 15.08830637 21327","OBJECT_TYPE":"PAYLOAD","EPHEMERIS_TYPE":"0","COUNTRY_CODE":"US","CENTER_NAME":"EARTH","SEMIMAJOR_AXIS":"6917.909","OBJECT_ID":"2022-107B","RA_OF_ASC_NODE":"341.7217","PERIOD":"95.438","RCS_SIZE":"LARGE","LAUNCH_DATE":"2022-09-05","ARG_OF_PERICENTER":"85.7355","CLASSIFICATION_TYPE":"U","TIME_SYSTEM":"UTC","INCLINATION":"53.2198","EPOCH":"2023-01-20T03:41:30.753888","MEAN_MOTION_DOT":"-0.00000827","MEAN_MOTION":"15.08830637","ECCENTRICITY":"0.00016910","TLE_LINE1":"1 53701U 22107B   23020.15382817 -.00000827  00000-0 -33874-4 0  9998","GP_ID":"223514510","MEAN_ANOMALY":"274.3830","SITE":"AFETR","MEAN_MOTION_DDOT":"0.0000000000000","BSTAR":"-0.00003387400000","PERIAPSIS":"538.604","DECAY_DATE":null,"REV_AT_EPOCH":"2132","FILE":"3755530","ELEMENT_SET_NO":"999"},{"SITE":"AFETR","MEAN_MOTION_DDOT":"0.0000000000000","MEAN_ANOMALY":"259.2860","GP_ID":"223554968","REV_AT_EPOCH":"2163","DECAY_DATE":null,"BSTAR":"0.00129200000000","PERIAPSIS":"538.628","ELEMENT_SET_NO":"999","FILE":"3756185","EPOCH":"2023-01-20T20:45:04.231584","MEAN_MOTION_DOT":"0.00020331","INCLINATION":"53.2164","TIME_SYSTEM":"UTC","CLASSIFICATION_TYPE":"U","ARG_OF_PERICENTER":"100.8316","MEAN_MOTION":"15.08834533","ECCENTRICITY":"0.00016390","TLE_LINE1":"1 53702U 22107C   23020.86463231  .00020331  00000-0  12920-2 0  9994","OBJECT_ID":"2022-107C","SEMIMAJOR_AXIS":"6917.897","CENTER_NAME":"EARTH","RA_OF_ASC_NODE":"324.0879","EPHEMERIS_TYPE":"0","COUNTRY_CODE":"US","PERIOD":"95.438","RCS_SIZE":"LARGE","LAUNCH_DATE":"2022-09-05","OBJECT_NAME":"STARLINK-4724","APOAPSIS":"540.896","TLE_LINE2":"2 53702  53.2164 324.0879 0001639 100.8316 259.2860 15.08834533 21635","OBJECT_TYPE":"PAYLOAD","NORAD_CAT_ID":"53702","MEAN_ELEMENT_THEORY":"SGP4","REF_FRAME":"TEME"},{"MEAN_MOTION":"15.08831207","ECCENTRICITY":"0.00012350","TLE_LINE1":"1 53703U 22107D   23020.83192182 -.00002003  00000-0 -10780-3 0  9997","CLASSIFICATION_TYPE":"U","ARG_OF_PERICENTER":"65.0423","TIME_SYSTEM":"UTC","INCLINATION":"53.2211","EPOCH":"2023-01-20T19:57:58.045248","MEAN_MOTION_DOT":"-0.00002003","BSTAR":"-0.00010780000000","PERIAPSIS":"538.918","REV_AT_EPOCH":"2142","DECAY_DATE":null,"FILE":"3756185","ELEMENT_SET_NO":"999","GP_ID":"223554960","MEAN_ANOMALY":"295.0697","SITE":"AFETR","MEAN_MOTION_DDOT":"0.0000000000000","REF_FRAME":"TEME","MEAN_ELEMENT_THEORY":"SGP4","NORAD_CAT_ID":"53703","TLE_LINE2":"2 53703  53.2211 338.8565 0001235  65.0423 295.0697 15.08831207 21425","OBJECT_TYPE":"PAYLOAD","APOAPSIS":"540.627","OBJECT_NAME":"STARLINK-4731","PERIOD":"95.438","RCS_SIZE":"LARGE","LAUNCH_DATE":"2022-09-05","EPHEMERIS_TYPE":"0","COUNTRY_CODE":"US","CENTER_NAME":"EARTH","SEMIMAJOR_AXIS":"6917.907","OBJECT_ID":"2022-107D","RA_OF_ASC_NODE":"338.8565"}];
